[
    {
        "Altitude(m)": 710041.7847405127,
        "Argument of Periapsis(deg)": 0.004556048474650827,
        "Eccentricity": 0.0,
        "Inclination(deg)": 45.0,
        "Latitude(deg)": -25.57020580900703,
        "Longitude(deg)": -81.87255383711509,
        "Mean Anomaly(deg)": -142.65941334100768,
        "RAAN(deg)": 169.99569922341672,
        "Satellite Name": "Constellation 1 761",
        "Satellite Number": 761,
        "Semi-Major Axis(m)": 7083131.272910544,
        "Time(s)": 76
    },
    {
        "Altitude(m)": 710055.6014972839,
        "Argument of Periapsis(deg)": 0.004615996480896233,
        "Eccentricity": 0.0,
        "Inclination(deg)": 45.0,
        "Latitude(deg)": -25.608081234106972,
        "Longitude(deg)": -81.82411815380657,
        "Mean Anomaly(deg)": -142.59871220075777,
        "RAAN(deg)": 169.99564263425117,
        "Satellite Name": "Constellation 1 761",
        "Satellite Number": 761,
        "Semi-Major Axis(m)": 7083131.272910544,
        "Time(s)": 77
    },
    {
        "Altitude(m)": 710069.419909455,
        "Argument of Periapsis(deg)": 0.004675944487141638,
        "Eccentricity": 0.0,
        "Inclination(deg)": 45.0,
        "Latitude(deg)": -25.645937484635507,
        "Longitude(deg)": -81.77564949718646,
        "Mean Anomaly(deg)": -142.53801106050787,
        "RAAN(deg)": 169.99558604508562,
        "Satellite Name": "Constellation 1 761",
        "Satellite Number": 761,
        "Semi-Major Axis(m)": 7083131.272910544,
        "Time(s)": 78
    },
    {
        "Altitude(m)": 710083.2399298311,
        "Argument of Periapsis(deg)": 0.004735892493387044,
        "Eccentricity": 0.0,
        "Inclination(deg)": 45.0,
        "Latitude(deg)": -25.683774516920565,
        "Longitude(deg)": -81.72714780705962,
        "Mean Anomaly(deg)": -142.477309920258,
        "RAAN(deg)": 169.99552945592,
        "Satellite Name": "Constellation 1 761",
        "Satellite Number": 761,
        "Semi-Major Axis(m)": 7083131.272910544,
        "Time(s)": 79
    },
    {
        "Altitude(m)": 710097.0615112208,
        "Argument of Periapsis(deg)": 0.004795840499632449,
        "Eccentricity": 0.0,
        "Inclination(deg)": 45.0,
        "Latitude(deg)": -25.72159228722658,
        "Longitude(deg)": -81.678613023231,
        "Mean Anomaly(deg)": -142.41660878000803,
        "RAAN(deg)": 169.99547286675445,
        "Satellite Name": "Constellation 1 761",
        "Satellite Number": 761,
        "Semi-Major Axis(m)": 7083131.272910544,
        "Time(s)": 80
    },
    {
        "Altitude(m)": 710110.8846063975,
        "Argument of Periapsis(deg)": 0.004855788505877855,
        "Eccentricity": 0.0,
        "Inclination(deg)": 45.0,
        "Latitude(deg)": -25.7593907517542,
        "Longitude(deg)": -81.63004508550627,
        "Mean Anomaly(deg)": -142.3559076397582,
        "RAAN(deg)": 169.99541627758887,
        "Satellite Name": "Constellation 1 761",
        "Satellite Number": 761,
        "Semi-Major Axis(m)": 7083131.272910544,
        "Time(s)": 81
    },
    {
        "Altitude(m)": 710124.7091681267,
        "Argument of Periapsis(deg)": 0.00491573651212326,
        "Eccentricity": 0.0,
        "Inclination(deg)": 45.0,
        "Latitude(deg)": -25.797169866640612,
        "Longitude(deg)": -81.58144410178876,
        "Mean Anomaly(deg)": -142.29520649950828,
        "RAAN(deg)": 169.99535968842332,
        "Satellite Name": "Constellation 1 761",
        "Satellite Number": 761,
        "Semi-Major Axis(m)": 7083131.272910544,
        "Time(s)": 82
    },
    {
        "Altitude(m)": 710138.5351491524,
        "Argument of Periapsis(deg)": 0.004975684518368666,
        "Eccentricity": 0.0,
        "Inclination(deg)": 45.0,
        "Latitude(deg)": -25.834929587959042,
        "Longitude(deg)": -81.53280967569152,
        "Mean Anomaly(deg)": -142.23450535925838,
        "RAAN(deg)": 169.99530309925777,
        "Satellite Name": "Constellation 1 761",
        "Satellite Number": 761,
        "Semi-Major Axis(m)": 7083131.272910544,
        "Time(s)": 83
    },
    {
        "Altitude(m)": 710152.3625021948,
        "Argument of Periapsis(deg)": 0.005035632524614072,
        "Eccentricity": 0.0,
        "Inclination(deg)": 45.0,
        "Latitude(deg)": -25.87266987171883,
        "Longitude(deg)": -81.48414191512072,
        "Mean Anomaly(deg)": -142.17380421900847,
        "RAAN(deg)": 169.99524651009216,
        "Satellite Name": "Constellation 1 761",
        "Satellite Number": 761,
        "Semi-Major Axis(m)": 7083131.272910544,
        "Time(s)": 84
    },
    {
        "Altitude(m)": 710166.1911799704,
        "Argument of Periapsis(deg)": 0.0050955805308594785,
        "Eccentricity": 0.0,
        "Inclination(deg)": 45.0,
        "Latitude(deg)": -25.910390673865507,
        "Longitude(deg)": -81.43544075988682,
        "Mean Anomaly(deg)": -142.11310307875854,
        "RAAN(deg)": 169.9951899209266,
        "Satellite Name": "Constellation 1 761",
        "Satellite Number": 761,
        "Semi-Major Axis(m)": 7083131.272910544,
        "Time(s)": 85
    },
    {
        "Altitude(m)": 710180.0211351683,
        "Argument of Periapsis(deg)": 0.005155528537104883,
        "Eccentricity": 0.0,
        "Inclination(deg)": 45.0,
        "Latitude(deg)": -25.948091950280283,
        "Longitude(deg)": -81.3867061498028,
        "Mean Anomaly(deg)": -142.0524019385087,
        "RAAN(deg)": 169.99513333176102,
        "Satellite Name": "Constellation 1 761",
        "Satellite Number": 761,
        "Semi-Major Axis(m)": 7083131.272910544,
        "Time(s)": 86
    },
    {
        "Altitude(m)": 710193.8523204626,
        "Argument of Periapsis(deg)": 0.0052154765433502885,
        "Eccentricity": 0.0,
        "Inclination(deg)": 45.0,
        "Latitude(deg)": -25.985773656780385,
        "Longitude(deg)": -81.33793802468384,
        "Mean Anomaly(deg)": -141.9917007982588,
        "RAAN(deg)": 169.99507674259547,
        "Satellite Name": "Constellation 1 761",
        "Satellite Number": 761,
        "Semi-Major Axis(m)": 7083131.272910544,
        "Time(s)": 87
    },
    {
        "Altitude(m)": 710207.6846885096,
        "Argument of Periapsis(deg)": 0.005275424549595694,
        "Eccentricity": 0.0,
        "Inclination(deg)": 45.0,
        "Latitude(deg)": -26.02343574911867,
        "Longitude(deg)": -81.28913632434809,
        "Mean Anomaly(deg)": -141.93099965800886,
        "RAAN(deg)": 169.9950201534299,
        "Satellite Name": "Constellation 1 761",
        "Satellite Number": 761,
        "Semi-Major Axis(m)": 7083131.272910544,
        "Time(s)": 88
    },
    {
        "Altitude(m)": 710221.5181919523,
        "Argument of Periapsis(deg)": 0.0053353725558411,
        "Eccentricity": 0.0,
        "Inclination(deg)": 45.0,
        "Latitude(deg)": -26.06107818298363,
        "Longitude(deg)": -81.24030115671422,
        "Mean Anomaly(deg)": -141.87029851775898,
        "RAAN(deg)": 169.99496356426434,
        "Satellite Name": "Constellation 1 761",
        "Satellite Number": 761,
        "Semi-Major Axis(m)": 7083131.272910544,
        "Time(s)": 89
    },
    {
        "Altitude(m)": 710235.3527834138,
        "Argument of Periapsis(deg)": 0.005395320562086505,
        "Eccentricity": 0.0,
        "Inclination(deg)": 45.0,
        "Latitude(deg)": -26.0987009139994,
        "Longitude(deg)": -81.19143212541243,
        "Mean Anomaly(deg)": -141.80959737750905,
        "RAAN(deg)": 169.99490697509873,
        "Satellite Name": "Constellation 1 761",
        "Satellite Number": 761,
        "Semi-Major Axis(m)": 7083131.272910544,
        "Time(s)": 90
    },
    {
        "Altitude(m)": 710249.1884155073,
        "Argument of Periapsis(deg)": 0.00545526856833191,
        "Eccentricity": 0.0,
        "Inclination(deg)": 45.0,
        "Latitude(deg)": -26.136303897725394,
        "Longitude(deg)": -81.14252933836883,
        "Mean Anomaly(deg)": -141.7488962372592,
        "RAAN(deg)": 169.99485038593318,
        "Satellite Name": "Constellation 1 761",
        "Satellite Number": 761,
        "Semi-Major Axis(m)": 7083131.272910544,
        "Time(s)": 91
    },
    {
        "Altitude(m)": 710263.0250408188,
        "Argument of Periapsis(deg)": 0.005515216574577317,
        "Eccentricity": 0.0,
        "Inclination(deg)": 45.0,
        "Latitude(deg)": -26.173887089656706,
        "Longitude(deg)": -81.09359273541611,
        "Mean Anomaly(deg)": -141.68819509700927,
        "RAAN(deg)": 169.99479379676762,
        "Satellite Name": "Constellation 1 761",
        "Satellite Number": 761,
        "Semi-Major Axis(m)": 7083131.272910544,
        "Time(s)": 92
    },
    {
        "Altitude(m)": 710276.8626119255,
        "Argument of Periapsis(deg)": 0.005575164580822722,
        "Eccentricity": 0.0,
        "Inclination(deg)": 45.0,
        "Latitude(deg)": -26.21145044522329,
        "Longitude(deg)": -81.04462225639213,
        "Mean Anomaly(deg)": -141.62749395675934,
        "RAAN(deg)": 169.99473720760204,
        "Satellite Name": "Constellation 1 761",
        "Satellite Number": 761,
        "Semi-Major Axis(m)": 7083131.272910544,
        "Time(s)": 93
    },
    {
        "Altitude(m)": 710290.7010813868,
        "Argument of Periapsis(deg)": 0.005635112587068129,
        "Eccentricity": 0.0,
        "Inclination(deg)": 45.0,
        "Latitude(deg)": -26.248993919790582,
        "Longitude(deg)": -80.99561784113925,
        "Mean Anomaly(deg)": -141.56679281650952,
        "RAAN(deg)": 169.9946806184365,
        "Satellite Name": "Constellation 1 761",
        "Satellite Number": 761,
        "Semi-Major Axis(m)": 7083131.272910544,
        "Time(s)": 94
    }
]